{"type": "FeatureCollection", "features": [ {"type": "Feature", "properties": {"norad_id": 43437, "name": "SENTINEL-3B", "group": "resource", "lat": -29.50059358362377, "lon": 66.91228654201988, "alt_km": 809.1018900676527, "timestamp": "2025-12-22T22:44:20.608411+00:00", "meta": {"OBJECT_NAME": "SENTINEL-3B", "OBJECT_ID": "2018-039A", "EPOCH": "2025-12-22T02:40:53.006304", "MEAN_MOTION": 14.26737543, "ECCENTRICITY": 0.00016188, "INCLINATION": 98.6254, "RA_OF_ASC_NODE": 61.1622, "ARG_OF_PERICENTER": 92.471, "MEAN_ANOMALY": 267.6656, "EPHEMERIS_TYPE": 0, "CLASSIFICATION_TYPE": "U", "NORAD_CAT_ID": 43437, "ELEMENT_SET_NO": 999, "REV_AT_EPOCH": 39887, "BSTAR": 7.7396733e-05, "MEAN_MOTION_DOT": 1.44e-06, "MEAN_MOTION_DDOT": 0}, "tle": {"line1": "1 43437U 18039A   25356.11172461  .00000144  00000+0  77397-4 0  9991", "line2": "2 43437  98.6254  61.1622 0001618  92.4710 267.6656 14.26737543398879"}}, "geometry": {"type": "Point", "coordinates": [66.91228654201988, -29.50059358362377]}}, {"type": "Feature", "properties": {"norad_id": 43461, "name": "GAOFEN-5 01", "group": "resource", "lat": 63.515515648220216, "lon": 157.41867244580013, "alt_km": 685.9274809123899, "timestamp": "2025-12-22T22:44:20.608422+00:00", "meta": {"OBJECT_NAME": "GAOFEN-5 01", "OBJECT_ID": "2018-043A", "EPOCH": "2025-12-22T12:20:51.410688", "MEAN_MOTION": 14.60419833, "ECCENTRICITY": 5.083e-05, "INCLINATION": 98.4341, "RA_OF_ASC_NODE": 319.653, "ARG_OF_PERICENTER": 269.1622, "MEAN_ANOMALY": 90.9519, "EPHEMERIS_TYPE": 0, "CLASSIFICATION_TYPE": "U", "NORAD_CAT_ID": 43461, "ELEMENT_SET_NO": 999, "REV_AT_EPOCH": 40590, "BSTAR": 9.4988125e-05, "MEAN_MOTION_DOT": 4.11e-06, "MEAN_MOTION_DDOT": 0}, "tle": {"line1": "1 43461U 18043A   25356.51448392  .00000411  00000+0  94988-4 0  9998", "line2": "2 43461  98.4341 319.6530 0000508 269.1622  90.9519 14.60419833405907"}}, "geometry": {"type": "Point", "coordinates": [157.41867244580013, 63.515515648220216]}}, {"type": "Feature", "properties": {"norad_id": 43484, "name": "GAOFEN-6", "group": "resource", "lat": -16.985954053480246, "lon": 63.27174756833878, "alt_km": 639.3733555015378, "timestamp": "2025-12-22T22:44:20.608432+00:00", "meta": {"OBJECT_NAME": "GAOFEN-6", "OBJECT_ID": "2018-048A", "EPOCH": "2025-12-22T19:33:49.220928", "MEAN_MOTION": 14.76582753, "ECCENTRICITY": 0.0012721, "INCLINATION": 97.8021, "RA_OF_ASC_NODE": 60.7435, "ARG_OF_PERICENTER": 33.8228, "MEAN_ANOMALY": 326.3791, "EPHEMERIS_TYPE": 0, "CLASSIFICATION_TYPE": "U", "NORAD_CAT_ID": 43484, "ELEMENT_SET_NO": 999, "REV_AT_EPOCH": 40736, "BSTAR": 0.00012675, "MEAN_MOTION_DOT": 8.36e-06, "MEAN_MOTION_DDOT": 0}, "tle": {"line1": "1 43484U 18048A   25356.81515302  .00000836  00000+0  12675-3 0  9990", "line2": "2 43484  97.8021  60.7435 0012721  33.8228 326.3791 14.76582753407365"}}, "geometry": {"type": "Point", "coordinates": [63.27174756833878, -16.985954053480246]}}, {"type": "Feature", "properties": {"norad_id": 43585, "name": "GAOFEN-11 01", "group": "resource", "lat": -59.42445441967364, "lon": 72.07275300991918, "alt_km": 423.334818597762, "timestamp": "2025-12-22T22:44:20.608443+00:00", "meta": {"OBJECT_NAME": "GAOFEN-11 01", "OBJECT_ID": "2018-063A", "EPOCH": "2025-12-22T19:53:54.813696", "MEAN_MOTION": 15.49488559, "ECCENTRICITY": 0.0003923, "INCLINATION": 97.1548, "RA_OF_ASC_NODE": 59.6797, "ARG_OF_PERICENTER": 260.8617, "MEAN_ANOMALY": 99.2191, "EPHEMERIS_TYPE": 0, "CLASSIFICATION_TYPE": "U", "NORAD_CAT_ID": 43585, "ELEMENT_SET_NO": 999, "REV_AT_EPOCH": 41298, "BSTAR": 0.00024376, "MEAN_MOTION_DOT": 0.00013334, "MEAN_MOTION_DDOT": 0}, "tle": {"line1": "1 43585U 18063A   25356.82910664  .00013334  00000+0  24376-3 0  9998", "line2": "2 43585  97.1548  59.6797 0003923 260.8617  99.2191 15.49488559412984"}}, "geometry": {"type": "Point", "coordinates": [72.07275300991918, -59.42445441967364]}}, {"type": "Feature", "properties": {"norad_id": 43613, "name": "ICESAT-2", "group": "resource", "lat": -20.55886590565782, "lon": -115.75534740310337, "alt_km": 487.9404856658166, "timestamp": "2025-12-22T22:44:20.608453+00:00", "meta": {"OBJECT_NAME": "ICESAT-2", "OBJECT_ID": "2018-070A", "EPOCH": "2025-12-22T11:49:42.696192", "MEAN_MOTION": 15.28279321, "ECCENTRICITY": 0.00030811, "INCLINATION": 92.0042, "RA_OF_ASC_NODE": 243.3695, "ARG_OF_PERICENTER": 120.0223, "MEAN_ANOMALY": 240.1332, "EPHEMERIS_TYPE": 0, "CLASSIFICATION_TYPE": "U", "NORAD_CAT_ID": 43613, "ELEMENT_SET_NO": 999, "REV_AT_EPOCH": 40547, "BSTAR": 0.00051409572, "MEAN_MOTION_DOT": 0.00014166, "MEAN_MOTION_DDOT": 0}, "tle": {"line1": "1 43613U 18070A   25356.49285528  .00014166  00000+0  51410-3 0  9998", "line2": "2 43613  92.0042 243.3695 0003081 120.0223 240.1332 15.28279321405475"}}, "geometry": {"type": "Point", "coordinates": [-115.75534740310337, -20.55886590565782]}}, {"type": "Feature", "properties": {"norad_id": 43719, "name": "HYSIS", "group": "resource", "lat": 80.53334412892502, "lon": -62.5228549272254, "alt_km": 625.6416154704193, "timestamp": "2025-12-22T22:44:20.608462+00:00", "meta": {"OBJECT_NAME": "HYSIS", "OBJECT_ID": "2018-096A", "EPOCH": "2025-12-22T19:03:45.935424", "MEAN_MOTION": 14.78668791, "ECCENTRICITY": 9.17e-05, "INCLINATION": 98.0087, "RA_OF_ASC_NODE": 59.7226, "ARG_OF_PERICENTER": 52.8265, "MEAN_ANOMALY": 307.3029, "EPHEMERIS_TYPE": 0, "CLASSIFICATION_TYPE": "U", "NORAD_CAT_ID": 43719, "ELEMENT_SET_NO": 999, "REV_AT_EPOCH": 38135, "BSTAR": 0.00011728, "MEAN_MOTION_DOT": 8.07e-06, "MEAN_MOTION_DDOT": 0}, "tle": {"line1": "1 43719U 18096A   25356.79428166  .00000807  00000+0  11728-3 0  9998", "line2": "2 43719  98.0087  59.7226 0000917  52.8265 307.3029 14.78668791381355"}}, "geometry": {"type": "Point", "coordinates": [-62.5228549272254, 80.53334412892502]}}, {"type": "Feature", "properties": {"norad_id": 43783, "name": "KAZSTSAT", "group": "resource", "lat": 10.317461182890042, "lon": 30.327178751898746, "alt_km": 570.1331805117552, "timestamp": "2025-12-22T22:44:20.608473+00:00", "meta": {"OBJECT_NAME": "KAZSTSAT", "OBJECT_ID": "2018-099AB", "EPOCH": "2025-12-22T08:16:39.683136", "MEAN_MOTION": 14.99367926, "ECCENTRICITY": 0.00060889, "INCLINATION": 97.4522, "RA_OF_ASC_NODE": 31.1161, "ARG_OF_PERICENTER": 287.0325, "MEAN_ANOMALY": 73.0232, "EPHEMERIS_TYPE": 0, "CLASSIFICATION_TYPE": "U", "NORAD_CAT_ID": 43783, "ELEMENT_SET_NO": 999, "REV_AT_EPOCH": 38480, "BSTAR": 4.5132456e-05, "MEAN_MOTION_DOT": 4.96e-06, "MEAN_MOTION_DDOT": 0}, "tle": {"line1": "1 43783U 18099AB  25356.34490374  .00000496  00000+0  45132-4 0  9994", "line2": "2 43783  97.4522  31.1161 0006088 287.0325  73.0232 14.99367926384804"}}, "geometry": {"type": "Point", "coordinates": [30.327178751898746, 10.317461182890042]}}, {"type": "Feature", "properties": {"norad_id": 43831, "name": "SAUDISAT 5A", "group": "resource", "lat": -49.499789789608066, "lon": 65.61418076139636, "alt_km": 496.0066823770103, "timestamp": "2025-12-22T22:44:20.608483+00:00", "meta": {"OBJECT_NAME": "SAUDISAT 5A", "OBJECT_ID": "2018-102A", "EPOCH": "2025-12-22T19:48:35.813664", "MEAN_MOTION": 15.25773298, "ECCENTRICITY": 0.0011246, "INCLINATION": 97.3335, "RA_OF_ASC_NODE": 56.8218, "ARG_OF_PERICENTER": 45.0327, "MEAN_ANOMALY": 315.1821, "EPHEMERIS_TYPE": 0, "CLASSIFICATION_TYPE": "U", "NORAD_CAT_ID": 43831, "ELEMENT_SET_NO": 999, "REV_AT_EPOCH": 38876, "BSTAR": 0.00024676, "MEAN_MOTION_DOT": 6.241e-05, "MEAN_MOTION_DDOT": 0}, "tle": {"line1": "1 43831U 18102A   25356.82541451  .00006241  00000+0  24676-3 0  9992", "line2": "2 43831  97.3335  56.8218 0011246  45.0327 315.1821 15.25773298388768"}}, "geometry": {"type": "Point", "coordinates": [65.61418076139636, -49.499789789608066]}}, {"type": "Feature", "properties": {"norad_id": 43833, "name": "SAUDISAT 5B", "group": "resource", "lat": 14.93128309559451, "lon": 57.727698448052934, "alt_km": 481.3553849021673, "timestamp": "2025-12-22T22:44:20.608493+00:00", "meta": {"OBJECT_NAME": "SAUDISAT 5B", "OBJECT_ID": "2018-102C", "EPOCH": "2025-12-22T19:31:34.113792", "MEAN_MOTION": 15.26120483, "ECCENTRICITY": 0.0011984, "INCLINATION": 97.3432, "RA_OF_ASC_NODE": 59.5669, "ARG_OF_PERICENTER": 47.1019, "MEAN_ANOMALY": 313.1223, "EPHEMERIS_TYPE": 0, "CLASSIFICATION_TYPE": "U", "NORAD_CAT_ID": 43833, "ELEMENT_SET_NO": 999, "REV_AT_EPOCH": 38887, "BSTAR": 0.00023435, "MEAN_MOTION_DOT": 5.987e-05, "MEAN_MOTION_DDOT": 0}, "tle": {"line1": "1 43833U 18102C   25356.81358928  .00005987  00000+0  23435-3 0  9996", "line2": "2 43833  97.3432  59.5669 0011984  47.1019 313.1223 15.26120483388877"}}, "geometry": {"type": "Point", "coordinates": [57.727698448052934, 14.93128309559451]}}, {"type": "Feature", "properties": {"norad_id": 44622, "name": "GAOFEN-10R", "group": "resource", "lat": 8.035444587213396, "lon": 125.63606851403003, "alt_km": 627.0535651917644, "timestamp": "2025-12-22T22:44:20.608504+00:00", "meta": {"OBJECT_NAME": "GAOFEN-10R", "OBJECT_ID": "2019-066A", "EPOCH": "2025-12-22T20:20:51.261792", "MEAN_MOTION": 14.8282414, "ECCENTRICITY": 0.0007176, "INCLINATION": 98.0292, "RA_OF_ASC_NODE": 304.3942, "ARG_OF_PERICENTER": 12.2067, "MEAN_ANOMALY": 347.9319, "EPHEMERIS_TYPE": 0, "CLASSIFICATION_TYPE": "U", "NORAD_CAT_ID": 44622, "ELEMENT_SET_NO": 999, "REV_AT_EPOCH": 33624, "BSTAR": 0.00018093, "MEAN_MOTION_DOT": 1.41e-05, "MEAN_MOTION_DDOT": 0}, "tle": {"line1": "1 44622U 19066A   25356.84781553  .00001410  00000+0  18093-3 0  9991", "line2": "2 44622  98.0292 304.3942 0007176  12.2067 347.9319 14.82824140336242"}}, "geometry": {"type": "Point", "coordinates": [125.63606851403003, 8.035444587213396]}}]}